{"addresses":[{"address1":"203 East Gwinnett Street","address2":"","city":"Savannah","state":"GA","postalCode":"31401","coordinates":{"lat":32.06637,"lng":-81.093895}},{"address1":"2902 Flint Street","address2":"","city":"Union City","state":"CA","postalCode":"94587","coordinates":{"lat":37.60442,"lng":-122.069607}},{"address1":"2755 Country Drive","address2":"#244","city":"Fremont","state":"CA","postalCode":"94536","coordinates":{"lat":37.557882,"lng":-121.986823}},{"address1":"4409 Star Jasmine Court","address2":"","city":"Bakersfield","state":"CA","postalCode":"93304","coordinates":{"lat":35.314966,"lng":-119.027406}},{"address1":"270 Tampa Drive","address2":"#M-1","city":"Nashville","state":"TN","postalCode":"37211","coordinates":{"lat":36.0834724,"lng":-86.71200139999999}},{"address1":"802 East 37th Street","address2":"","city":"Savannah","state":"GA","postalCode":"31401","coordinates":{"lat":32.054012,"lng":-81.087324}},{"address1":"8376 Albacore Drive","address2":"","city":"Pasadena","state":"MD","postalCode":"21122","coordinates":{"lat":39.110409,"lng":-76.46565799999999}},{"address1":"1432 Bell Trace Drive","address2":"","city":"Nashville","state":"TN","postalCode":"37013","coordinates":{"lat":36.0397991,"lng":-86.6705185}},{"address1":"1809 Hughes Street","address2":"","city":"Nashville","state":"TN","postalCode":"37208","coordinates":{"lat":36.189117,"lng":-86.81445699999999}},{"address1":"915 Hargrove Street","address2":"","city":"Ardmore","state":"OK","postalCode":"73401","coordinates":{"lat":34.184371,"lng":-97.13386190000001}},{"address1":"1219 Carleton Street","address2":"M","city":"Berkeley","state":"CA","postalCode":"94702","coordinates":{"lat":37.8591054,"lng":-122.285823}},{"address1":"534 Turpin Street","address2":"#APT 000001","city":"Anchorage","state":"AK","postalCode":"99504","coordinates":{"lat":61.21704200000001,"lng":-149.756583}},{"address1":"1938 Arcadian Street","address2":"","city":"Savannah","state":"GA","postalCode":"31405","coordinates":{"lat":32.045498,"lng":-81.140851}},{"address1":"1124 Bluewillow Court","address2":"","city":"Nashville","state":"TN","postalCode":"37013","coordinates":{"lat":36.040783,"lng":-86.577798}},{"address1":"4516 Old Seward Highway","address2":"","city":"Anchorage","state":"AK","postalCode":"99503","coordinates":{"lat":61.1796427,"lng":-149.8693945}},{"address1":"5275 North 59th Avenue","address2":"","city":"Glendale","state":"AZ","postalCode":"85301","coordinates":{"lat":33.5140419,"lng":-112.1855701}},{"address1":"401 East Northern Lights Boulevard","address2":"#STE 000203","city":"Anchorage","state":"AK","postalCode":"99503","coordinates":{"lat":61.19566319999999,"lng":-149.8762046}},{"address1":"32532 Jean Drive","address2":"","city":"Union City","state":"CA","postalCode":"94587","coordinates":{"lat":37.5752359,"lng":-122.07283}},{"address1":"3215 Madsen Street","address2":"","city":"Hayward","state":"CA","postalCode":"94541","coordinates":{"lat":37.6618825,"lng":-122.0904612}},{"address1":"7111 North 75th Avenue","address2":"#1067","city":"Glendale","state":"AZ","postalCode":"85303","coordinates":{"lat":33.540617,"lng":-112.21863}},{"address1":"604 Northwest 118th Street","address2":"","city":"Oklahoma City","state":"OK","postalCode":"73114","coordinates":{"lat":35.5902559,"lng":-97.523444}},{"address1":"3825 West Muhammad Ali Boulevard","address2":"","city":"Louisville","state":"KY","postalCode":"40212","coordinates":{"lat":38.2576069,"lng":-85.8138415}},{"address1":"5436 Dorbrandt Street","address2":"#APT 000002","city":"Anchorage","state":"AK","postalCode":"99518","coordinates":{"lat":61.17090200000001,"lng":-149.904782}},{"address1":"622 Elaine Drive","address2":"","city":"Nashville","state":"TN","postalCode":"37211","coordinates":{"lat":36.0835,"lng":-86.75201600000001}},{"address1":"720 East Muhammad Ali Boulevard","address2":"","city":"Louisville","state":"KY","postalCode":"40202","coordinates":{"lat":38.2491941,"lng":-85.7396682}},{"address1":"6120 Southeast 84th Street","address2":"","city":"Oklahoma City","state":"OK","postalCode":"73135","coordinates":{"lat":35.380836,"lng":-97.41582}},{"address1":"5113 Southeast 51st Street","address2":"","city":"Oklahoma City","state":"OK","postalCode":"73135","coordinates":{"lat":35.4141774,"lng":-97.42992919999999}},{"address1":"600 Crosby Boulevard","address2":"","city":"Midwest City","state":"OK","postalCode":"73110","coordinates":{"lat":35.4588784,"lng":-97.41534899999999}},{"address1":"323 Southeast 23rd Street","address2":"","city":"Oklahoma City","state":"OK","postalCode":"73129","coordinates":{"lat":35.44171559999999,"lng":-97.50572050000001}},{"address1":"1521 159th Avenue","address2":"","city":"San Leandro","state":"CA","postalCode":"94578","coordinates":{"lat":37.70179340000001,"lng":-122.1192658}},{"address1":"1732 27th Avenue","address2":"","city":"Oakland","state":"CA","postalCode":"94601","coordinates":{"lat":37.783431,"lng":-122.228238}},{"address1":"122 East Hayes Street","address2":"","city":"Norman","state":"OK","postalCode":"73069","coordinates":{"lat":35.232121,"lng":-97.445053}},{"address1":"11501 Maple Way","address2":"","city":"Louisville","state":"KY","postalCode":"40229","coordinates":{"lat":38.097617,"lng":-85.6598254}},{"address1":"2400 Merry Street","address2":"","city":"Nashville","state":"TN","postalCode":"37208","coordinates":{"lat":36.159658,"lng":-86.81209799999999}},{"address1":"107 Guaymas Place","address2":"","city":"Davis","state":"CA","postalCode":"95616","coordinates":{"lat":38.567048,"lng":-121.746046}},{"address1":"Yucca Way","address2":"","city":"Arvada","state":"CO","postalCode":"80007","coordinates":{"lat":39.8666498,"lng":-105.2064653}},{"address1":"5634 Kipling Parkway","address2":"#102","city":"Arvada","state":"CO","postalCode":"80002","coordinates":{"lat":39.799218,"lng":-105.111464}},{"address1":"2147 Millhaven Drive","address2":"","city":"Edgewater","state":"MD","postalCode":"21037","coordinates":{"lat":38.935644,"lng":-76.562758}},{"address1":"4601 Reka Drive","address2":"#APT 000019","city":"Anchorage","state":"AK","postalCode":"99508","coordinates":{"lat":61.20430280000001,"lng":-149.7948294}},{"address1":"1401 Cordova Street","address2":"#APT 000006","city":"Anchorage","state":"AK","postalCode":"99501","coordinates":{"lat":61.20849370000001,"lng":-149.8792198}},{"address1":"10723 Colonial Woods Court","address2":"","city":"Louisville","state":"KY","postalCode":"40223","coordinates":{"lat":38.2496439,"lng":-85.55717709999999}},{"address1":"9545 West 74th Avenue","address2":"","city":"Arvada","state":"CO","postalCode":"80005","coordinates":{"lat":39.831067,"lng":-105.104237}},{"address1":"28250 Dickens Avenue","address2":"","city":"Hayward","state":"CA","postalCode":"94544","coordinates":{"lat":37.626108,"lng":-122.072898}},{"address1":"244 La Normandy Drive","address2":"","city":"Louisville","state":"KY","postalCode":"40223","coordinates":{"lat":38.2477519,"lng":-85.5581574}},{"address1":"4712 Rock Creek Road","address2":"","city":"Ardmore","state":"OK","postalCode":"73401","coordinates":{"lat":34.182105,"lng":-97.19224500000001}},{"address1":"1822 North Grand Avenue","address2":"","city":"Pueblo","state":"CO","postalCode":"81003","coordinates":{"lat":38.284427,"lng":-104.611581}},{"address1":"378 Bonny Street","address2":"","city":"Grand Junction","state":"CO","postalCode":"81501","coordinates":{"lat":39.059697,"lng":-108.543777}},{"address1":"5118 Augusta Road","address2":"","city":"Garden City","state":"GA","postalCode":"31408","coordinates":{"lat":32.115334,"lng":-81.1650918}},{"address1":"218 Saint Antons Way","address2":"","city":"Arnold","state":"MD","postalCode":"21012","coordinates":{"lat":39.061385,"lng":-76.51199}},{"address1":"1478 Sharps Point Road","address2":"","city":"Annapolis","state":"MD","postalCode":"21409","coordinates":{"lat":39.003222,"lng":-76.43876399999999}},{"address1":"406 Stilz Avenue","address2":"","city":"Louisville","state":"KY","postalCode":"40206","coordinates":{"lat":38.249288,"lng":-85.681572}},{"address1":"1030 Lake Claire Drive","address2":"","city":"Annapolis","state":"MD","postalCode":"21409","coordinates":{"lat":39.048603,"lng":-76.448911}},{"address1":"5316 Silver Wing Boulevard","address2":"","city":"Louisville","state":"KY","postalCode":"40241","coordinates":{"lat":38.31594,"lng":-85.556752}},{"address1":"8404 South Villa Avenue","address2":"","city":"Oklahoma City","state":"OK","postalCode":"73159","coordinates":{"lat":35.3818163,"lng":-97.5570041}},{"address1":"5011 West New World Drive","address2":"","city":"Glendale","state":"AZ","postalCode":"85302","coordinates":{"lat":33.566608,"lng":-112.16661}},{"address1":"6729 North 54th Avenue","address2":"","city":"Glendale","state":"AZ","postalCode":"85301","coordinates":{"lat":33.536068,"lng":-112.17458}},{"address1":"725 65th Street","address2":"","city":"Oakland","state":"CA","postalCode":"94609","coordinates":{"lat":37.849964,"lng":-122.266668}},{"address1":"43626 Bryant Street","address2":"","city":"Fremont","state":"CA","postalCode":"94539","coordinates":{"lat":37.526895,"lng":-121.92052}},{"address1":"13417 West Marlette Court","address2":"","city":"Litchfield Park","state":"AZ","postalCode":"85340","coordinates":{"lat":33.5272379,"lng":-112.34799}},{"address1":"6604 North 59th Avenue","address2":"#17","city":"Glendale","state":"AZ","postalCode":"85301","coordinates":{"lat":33.5340739,"lng":-112.186878}},{"address1":"6108 Iris Way","address2":"","city":"Arvada","state":"CO","postalCode":"80004","coordinates":{"lat":39.8082309,"lng":-105.1055592}},{"address1":"6007 Applegate Lane","address2":"","city":"Louisville","state":"KY","postalCode":"40219","coordinates":{"lat":38.1343013,"lng":-85.6498512}},{"address1":"8213 Northwest 65th Place","address2":"","city":"Oklahoma City","state":"OK","postalCode":"73132","coordinates":{"lat":35.539071,"lng":-97.66036600000001}},{"address1":"3140 Commander Drive","address2":"","city":"Louisville","state":"KY","postalCode":"40220","coordinates":{"lat":38.215781,"lng":-85.653981}},{"address1":"1 Kelton Court","address2":"#4H","city":"Oakland","state":"CA","postalCode":"94611","coordinates":{"lat":37.8243896,"lng":-122.2508859}},{"address1":"105 French Run Road","address2":"","city":"Savannah","state":"GA","postalCode":"31404","coordinates":{"lat":32.059471,"lng":-81.040477}},{"address1":"6231 North 67th Avenue","address2":"#241","city":"Glendale","state":"AZ","postalCode":"85301","coordinates":{"lat":33.5279666,"lng":-112.2022551}},{"address1":"7720 Allison Street","address2":"#105","city":"Arvada","state":"CO","postalCode":"80005","coordinates":{"lat":39.8383411,"lng":-105.0855734}},{"address1":"7027 West Phelps Road","address2":"","city":"Peoria","state":"AZ","postalCode":"85382","coordinates":{"lat":33.635541,"lng":-112.209889}},{"address1":"5843 West McLellan Road","address2":"","city":"Glendale","state":"AZ","postalCode":"85301","coordinates":{"lat":33.5330898,"lng":-112.1857087}},{"address1":"3801 North Ann Arbor Place","address2":"","city":"Oklahoma City","state":"OK","postalCode":"73122","coordinates":{"lat":35.508741,"lng":-97.608784}},{"address1":"1644 Queenstown Road","address2":"","city":"Nichols Hills","state":"OK","postalCode":"73116","coordinates":{"lat":35.542511,"lng":-97.547282}},{"address1":"1349 Burkhart Avenue","address2":"","city":"San Leandro","state":"CA","postalCode":"94579","coordinates":{"lat":37.685391,"lng":-122.152332}},{"address1":"201 West Montgomery Cross Road","address2":"#170","city":"Savannah","state":"GA","postalCode":"31406","coordinates":{"lat":31.9996137,"lng":-81.13121}},{"address1":"555 North Dupont Avenue","address2":"#C-55","city":"Nashville","state":"TN","postalCode":"37115","coordinates":{"lat":36.268033,"lng":-86.6999979}},{"address1":"16463 North 60th Avenue","address2":"","city":"Glendale","state":"AZ","postalCode":"85306","coordinates":{"lat":33.636847,"lng":-112.188737}},{"address1":"3813 Sheffield Lane","address2":"","city":"Pueblo","state":"CO","postalCode":"81005","coordinates":{"lat":38.218097,"lng":-104.6573}},{"address1":"913 Fallview Trail","address2":"","city":"Nashville","state":"TN","postalCode":"37211","coordinates":{"lat":36.02419100000001,"lng":-86.718305}},{"address1":"880 H Street","address2":"#STE 000204","city":"Anchorage","state":"AK","postalCode":"99501","coordinates":{"lat":61.2138319,"lng":-149.8975861}},{"address1":"21 Longview Bluff Drive East","address2":"","city":"Savannah","state":"GA","postalCode":"31419","coordinates":{"lat":31.95754299999999,"lng":-81.13848899999999}},{"address1":"4 Glen Circle","address2":"","city":"Glen Burnie","state":"MD","postalCode":"21060","coordinates":{"lat":39.157751,"lng":-76.60633399999999}},{"address1":"25538 Calaroga Avenue","address2":"","city":"Hayward","state":"CA","postalCode":"94545","coordinates":{"lat":37.642952,"lng":-122.098647}},{"address1":"508 Baker Street","address2":"","city":"Norman","state":"OK","postalCode":"73072","coordinates":{"lat":35.224961,"lng":-97.51696299999999}},{"address1":"16031 West 63rd Lane","address2":"E","city":"Arvada","state":"CO","postalCode":"80403","coordinates":{"lat":39.8117723,"lng":-105.1804962}},{"address1":"5472 Sunstar Common","address2":"","city":"Fremont","state":"CA","postalCode":"94555","coordinates":{"lat":37.5609018,"lng":-122.0567745}},{"address1":"9712 Stream View Trail","address2":"","city":"Louisville","state":"KY","postalCode":"40258","coordinates":{"lat":38.136731,"lng":-85.88158}},{"address1":"2917 Danzig Place","address2":"#102","city":"Louisville","state":"KY","postalCode":"40245","coordinates":{"lat":38.280137,"lng":-85.49418639999999}},{"address1":"1726 Bridgeview Lane","address2":"#5","city":"Lyndon","state":"KY","postalCode":"40242","coordinates":{"lat":38.274743,"lng":-85.60430699999999}},{"address1":"3109 Thistle Down Lane","address2":"","city":"Nashville","state":"TN","postalCode":"37013","coordinates":{"lat":36.02579600000001,"lng":-86.69677}},{"address1":"10110 Landwood Drive","address2":"","city":"Louisville","state":"KY","postalCode":"40291","coordinates":{"lat":38.119501,"lng":-85.576748}},{"address1":"171 Brickhill Circle","address2":"","city":"Pooler","state":"GA","postalCode":"31322","coordinates":{"lat":32.175349,"lng":-81.25099}},{"address1":"6221 West Wethersfield Road","address2":"","city":"Glendale","state":"AZ","postalCode":"85304","coordinates":{"lat":33.596597,"lng":-112.192735}},{"address1":"2313 Vegas Avenue","address2":"","city":"Castro Valley","state":"CA","postalCode":"94546","coordinates":{"lat":37.689189,"lng":-122.076775}},{"address1":"3180 Parthenon Avenue","address2":"#110","city":"Nashville","state":"TN","postalCode":"37203","coordinates":{"lat":36.1449179,"lng":-86.821767}},{"address1":"39247 Sundale Drive","address2":"","city":"Fremont","state":"CA","postalCode":"94538","coordinates":{"lat":37.5384851,"lng":-121.9855489}},{"address1":"13116 West Palo Verde Drive","address2":"","city":"Litchfield Park","state":"AZ","postalCode":"85340","coordinates":{"lat":33.521955,"lng":-112.342071}},{"address1":"1124 Jacobs Court","address2":"","city":"Nashville","state":"TN","postalCode":"37080","coordinates":{"lat":36.31671,"lng":-86.921248}},{"address1":"6578 Marauder Drive","address2":"","city":"Nashville","state":"TN","postalCode":"37209","coordinates":{"lat":36.142929,"lng":-86.885521}},{"address1":"5397 Wentworth Avenue","address2":"","city":"Oakland","state":"CA","postalCode":"94601","coordinates":{"lat":37.769842,"lng":-122.200969}},{"address1":"8010 Holland Court","address2":"D","city":"Arvada","state":"CO","postalCode":"80005","coordinates":{"lat":39.84229029999999,"lng":-105.1030368}},{"address1":"3313 Daisy Trail","address2":"","city":"Nashville","state":"TN","postalCode":"37013","coordinates":{"lat":36.076186,"lng":-86.60113799999999}},{"address1":"8159 West 81st Avenue","address2":"","city":"Arvada","state":"CO","postalCode":"80005","coordinates":{"lat":39.843993,"lng":-105.089124}},{"address1":"405 Flint Ridge Court","address2":"","city":"Norman","state":"OK","postalCode":"73072","coordinates":{"lat":35.222486,"lng":-97.507916}},{"address1":"110 Carraway Lane","address2":"","city":"Annapolis","state":"MD","postalCode":"21401","coordinates":{"lat":38.9744956,"lng":-76.5058135}},{"address1":"281 MacArthur Boulevard","address2":"","city":"Oakland","state":"CA","postalCode":"94610","coordinates":{"lat":37.8147324,"lng":-122.25217}},{"address1":"110 Oxford Road","address2":"","city":"Savannah","state":"GA","postalCode":"31419","coordinates":{"lat":31.959949,"lng":-81.155259}},{"address1":"317 Windsor Road","address2":"","city":"Savannah","state":"GA","postalCode":"31419","coordinates":{"lat":31.973034,"lng":-81.141871}},{"address1":"945 South 5th Street","address2":"#1020","city":"Louisville","state":"KY","postalCode":"40203","coordinates":{"lat":38.2402351,"lng":-85.76031119999999}},{"address1":"13852 West 66th Place","address2":"","city":"Arvada","state":"CO","postalCode":"80004","coordinates":{"lat":39.8168929,"lng":-105.1551018}},{"address1":"1014 South 2nd Street","address2":"#508","city":"Louisville","state":"KY","postalCode":"40203","coordinates":{"lat":38.2381394,"lng":-85.7567894}},{"address1":"1015 Castle Road","address2":"","city":"Edmond","state":"OK","postalCode":"73034","coordinates":{"lat":35.665019,"lng":-97.466045}},{"address1":"22649 McManus Drive","address2":"","city":"Anchorage","state":"AK","postalCode":"99567","coordinates":{"lat":61.418189,"lng":-149.460766}},{"address1":"420 D Street Northwest","address2":"","city":"Ardmore","state":"OK","postalCode":"73401","coordinates":{"lat":34.1791714,"lng":-97.13180349999999}},{"address1":"1363 Dean Forest Road","address2":"","city":"Savannah","state":"GA","postalCode":"31405","coordinates":{"lat":32.0584405,"lng":-81.2104642}},{"address1":"1326 U.S. 80","address2":"#403","city":"Garden City","state":"GA","postalCode":"31408","coordinates":{"lat":32.0884125,"lng":-81.167345}},{"address1":"4255 Tanager Common","address2":"","city":"Fremont","state":"CA","postalCode":"94555","coordinates":{"lat":37.5738888,"lng":-122.0460256}},{"address1":"8597 Bay Road","address2":"","city":"Pasadena","state":"MD","postalCode":"21122","coordinates":{"lat":39.161536,"lng":-76.500959}},{"address1":"849 East Victoria Street","address2":"#204","city":"Carson","state":"CA","postalCode":"90746","coordinates":{"lat":33.8673562,"lng":-118.2597713}},{"address1":"6328 West Brown Street","address2":"","city":"Glendale","state":"AZ","postalCode":"85302","coordinates":{"lat":33.578369,"lng":-112.19603}},{"address1":"89 Barrensdale Drive","address2":"","city":"Severna Park","state":"MD","postalCode":"21146","coordinates":{"lat":39.055699,"lng":-76.53443899999999}},{"address1":"5228 North 70th Avenue","address2":"","city":"Glendale","state":"AZ","postalCode":"85303","coordinates":{"lat":33.5139101,"lng":-112.2097368}},{"address1":"2223 North Fernwood Court","address2":"","city":"Savannah","state":"GA","postalCode":"31404","coordinates":{"lat":32.029307,"lng":-81.06297099999999}},{"address1":"20375 Wisteria Street","address2":"","city":"Castro Valley","state":"CA","postalCode":"94546","coordinates":{"lat":37.696683,"lng":-122.085865}},{"address1":"416 Waverly Avenue","address2":"","city":"Baltimore","state":"MD","postalCode":"21225","coordinates":{"lat":39.21664699999999,"lng":-76.60289999999999}},{"address1":"2406 Lindbergh Drive","address2":"","city":"Louisville","state":"KY","postalCode":"40208","coordinates":{"lat":38.215833,"lng":-85.775153}},{"address1":"6717 North 59th Avenue","address2":"","city":"Glendale","state":"AZ","postalCode":"85301","coordinates":{"lat":33.5357556,"lng":-112.1857265}},{"address1":"1495 Snell Boulevard","address2":"","city":"Nashville","state":"TN","postalCode":"37218","coordinates":{"lat":36.179644,"lng":-86.84018300000001}},{"address1":"3115 North Lake Boulevard","address2":"#87","city":"Tahoe City","state":"CA","postalCode":"96145","coordinates":{"lat":39.190947,"lng":-120.108825}},{"address1":"8401 Pinewood Drive","address2":"","city":"Oklahoma City","state":"OK","postalCode":"73135","coordinates":{"lat":35.382469,"lng":-97.4303}},{"address1":"1123 Glenwood Avenue","address2":"","city":"Nashville","state":"TN","postalCode":"37204","coordinates":{"lat":36.099912,"lng":-86.79836999999999}},{"address1":"8358 WB&A Road","address2":"","city":"Severn","state":"MD","postalCode":"21144","coordinates":{"lat":39.108962,"lng":-76.68668799999999}},{"address1":"629 Debbie Drive","address2":"","city":"Nashville","state":"TN","postalCode":"37076","coordinates":{"lat":36.208114,"lng":-86.58621199999999}},{"address1":"8447 West 51st Avenue","address2":"","city":"Arvada","state":"CO","postalCode":"80002","coordinates":{"lat":39.789865,"lng":-105.092429}},{"address1":"908 Lodge Hill Road","address2":"","city":"Louisville","state":"KY","postalCode":"40223","coordinates":{"lat":38.259123,"lng":-85.55744899999999}},{"address1":"10881 Northforde Drive","address2":"","city":"Cupertino","state":"CA","postalCode":"95014","coordinates":{"lat":37.335812,"lng":-122.023985}},{"address1":"1011 San Jose Street","address2":"","city":"San Leandro","state":"CA","postalCode":"94577","coordinates":{"lat":37.72956300000001,"lng":-122.147074}},{"address1":"10774 West 54th Lane","address2":"","city":"Arvada","state":"CO","postalCode":"80002","coordinates":{"lat":39.7963587,"lng":-105.11861}},{"address1":"6418 Iris Way","address2":"","city":"Arvada","state":"CO","postalCode":"80004","coordinates":{"lat":39.813257,"lng":-105.10886}},{"address1":"6029 Wright Street","address2":"","city":"Arvada","state":"CO","postalCode":"80004","coordinates":{"lat":39.8063897,"lng":-105.1397744}},{"address1":"3604 Ridgehaven Drive","address2":"","city":"Midwest City","state":"OK","postalCode":"73110","coordinates":{"lat":35.4767103,"lng":-97.4018785}},{"address1":"1709 Vineyard Trail","address2":"","city":"Annapolis","state":"MD","postalCode":"21401","coordinates":{"lat":39.011135,"lng":-76.533643}},{"address1":"5112 Southwest 124th Place","address2":"","city":"Oklahoma City","state":"OK","postalCode":"73173","coordinates":{"lat":35.343756,"lng":-97.608513}},{"address1":"5119 West Columbine Drive","address2":"","city":"Glendale","state":"AZ","postalCode":"85304","coordinates":{"lat":33.598244,"lng":-112.169776}},{"address1":"2829 Cambridge Court","address2":"","city":"Oklahoma City","state":"OK","postalCode":"73116","coordinates":{"lat":35.54268,"lng":-97.564402}},{"address1":"904 Walthour Road","address2":"","city":"Savannah","state":"GA","postalCode":"31410","coordinates":{"lat":32.006444,"lng":-80.962711}},{"address1":"2313 South 4th Street","address2":"","city":"Louisville","state":"KY","postalCode":"40208","coordinates":{"lat":38.2150183,"lng":-85.7638487}},{"address1":"1347 Blackwalnut Court","address2":"","city":"Annapolis","state":"MD","postalCode":"21403","coordinates":{"lat":38.936881,"lng":-76.475823}},{"address1":"2632 Jackson Street East","address2":"","city":"Carson","state":"CA","postalCode":"90810","coordinates":{"lat":33.8360282,"lng":-118.2202665}},{"address1":"105 Gilmore Street","address2":"","city":"Glen Burnie","state":"MD","postalCode":"21061","coordinates":{"lat":39.176817,"lng":-76.630884}},{"address1":"4927 Alvin Sperry Road","address2":"","city":"Mount Juliet","state":"TN","postalCode":"37122","coordinates":{"lat":36.143557,"lng":-86.556877}},{"address1":"7701 Southwest 104th Street","address2":"","city":"Oklahoma City","state":"OK","postalCode":"73169","coordinates":{"lat":35.3641983,"lng":-97.6475346}},{"address1":"12725 Landmark Street","address2":"APT A","city":"Anchorage","state":"AK","postalCode":"99515","coordinates":{"lat":61.1056052,"lng":-149.8523519}},{"address1":"3318 East Woodbine Road","address2":"","city":"Orange","state":"CA","postalCode":"92867","coordinates":{"lat":33.835,"lng":-117.818473}},{"address1":"17480 Beaujolais Circle","address2":"","city":"Anchorage","state":"AK","postalCode":"99577","coordinates":{"lat":61.3382562,"lng":-149.555598}},{"address1":"11150 Sun Valley Drive","address2":"","city":"Oakland","state":"CA","postalCode":"94605","coordinates":{"lat":37.752039,"lng":-122.11822}},{"address1":"549 Elysian Fields Road","address2":"","city":"Nashville","state":"TN","postalCode":"37211","coordinates":{"lat":36.084314,"lng":-86.746375}},{"address1":"7711 North 51st Avenue","address2":"#1180","city":"Glendale","state":"AZ","postalCode":"85301","coordinates":{"lat":33.5502243,"lng":-112.1665731}},{"address1":"12493 West 84th Circle","address2":"","city":"Arvada","state":"CO","postalCode":"80005","coordinates":{"lat":39.850675,"lng":-105.1410626}},{"address1":"26563 Chisholm Court","address2":"","city":"Hayward","state":"CA","postalCode":"94544","coordinates":{"lat":37.641711,"lng":-122.078659}},{"address1":"903 Mallard Creek Road","address2":"","city":"Saint Matthews","state":"KY","postalCode":"40207","coordinates":{"lat":38.2384725,"lng":-85.63011589999999}},{"address1":"928 Wright Avenue","address2":"#UNIT 505","city":"Mountain View","state":"CA","postalCode":"94043","coordinates":{"lat":37.3996523,"lng":-122.0796285}},{"address1":"98 Lee Drive","address2":"","city":"Annapolis","state":"MD","postalCode":"21403","coordinates":{"lat":38.933313,"lng":-76.4933099}},{"address1":"1413 G Street","address2":"#STE 000001","city":"Anchorage","state":"AK","postalCode":"99501","coordinates":{"lat":61.2082831,"lng":-149.8952664}},{"address1":"5039 North 57th Avenue","address2":"#118","city":"Glendale","state":"AZ","postalCode":"85301","coordinates":{"lat":33.5105588,"lng":-112.181081}},{"address1":"12156 Oslo Drive","address2":"","city":"Truckee","state":"CA","postalCode":"96161","coordinates":{"lat":39.35603649999999,"lng":-120.2351517}},{"address1":"8409 Gullane Court","address2":"","city":"Pasadena","state":"MD","postalCode":"21122","coordinates":{"lat":39.134241,"lng":-76.498773}},{"address1":"88 Pine Valley Road","address2":"","city":"Savannah","state":"GA","postalCode":"31404","coordinates":{"lat":32.022372,"lng":-81.0796529}},{"address1":"545 East Muhammad Ali Boulevard","address2":"#103","city":"Louisville","state":"KY","postalCode":"40202","coordinates":{"lat":38.2497972,"lng":-85.7430095}},{"address1":"13426 North 54th Drive","address2":"","city":"Glendale","state":"AZ","postalCode":"85304","coordinates":{"lat":33.607281,"lng":-112.17645}},{"address1":"3959 Fairlands Drive","address2":"","city":"Pleasanton","state":"CA","postalCode":"94588","coordinates":{"lat":37.6992001,"lng":-121.8703701}},{"address1":"6234 West Behrend Drive","address2":"#1134","city":"Glendale","state":"AZ","postalCode":"85308","coordinates":{"lat":33.6663894,"lng":-112.1940529}},{"address1":"3040 17th Street","address2":"","city":"Boulder","state":"CO","postalCode":"80304","coordinates":{"lat":40.0308834,"lng":-105.2748855}},{"address1":"2815 Saint Edwards Drive","address2":"","city":"Nashville","state":"TN","postalCode":"37211","coordinates":{"lat":36.112224,"lng":-86.738739}},{"address1":"8546 North 59th Lane","address2":"#171","city":"Glendale","state":"AZ","postalCode":"85302","coordinates":{"lat":33.5615847,"lng":-112.1884147}},{"address1":"1583 Elberta Court","address2":"","city":"Severn","state":"MD","postalCode":"21144","coordinates":{"lat":39.139112,"lng":-76.715386}},{"address1":"4188 Summerview Drive","address2":"#3","city":"Louisville","state":"KY","postalCode":"40272","coordinates":{"lat":38.0741784,"lng":-85.8750755}},{"address1":"20443 Granite Park Circle","address2":"","city":"Anchorage","state":"AK","postalCode":"99577","coordinates":{"lat":61.3009843,"lng":-149.5003959}},{"address1":"429 Patterson Street","address2":"","city":"Nashville","state":"TN","postalCode":"37211","coordinates":{"lat":36.102655,"lng":-86.744186}},{"address1":"430 Fig Street","address2":"","city":"Madera","state":"CA","postalCode":"93638","coordinates":{"lat":36.96641109999999,"lng":-120.0424251}},{"address1":"410 Fairlea Drive","address2":"","city":"Edgewater","state":"MD","postalCode":"21037","coordinates":{"lat":38.940422,"lng":-76.54894}},{"address1":"11 Eclipse Court","address2":"","city":"Alameda","state":"CA","postalCode":"94501","coordinates":{"lat":37.7823187,"lng":-122.2678109}},{"address1":"1701 18th Avenue South","address2":"","city":"Nashville","state":"TN","postalCode":"37212","coordinates":{"lat":36.137509,"lng":-86.797185}},{"address1":"8202 Dudley Way","address2":"","city":"Arvada","state":"CO","postalCode":"80005","coordinates":{"lat":39.846117,"lng":-105.094914}},{"address1":"3320 Peterkin Avenue","address2":"","city":"Anchorage","state":"AK","postalCode":"99508","coordinates":{"lat":61.22569499999999,"lng":-149.818735}},{"address1":"12061 Johns Road","address2":"#APT 000002","city":"Anchorage","state":"AK","postalCode":"99515","coordinates":{"lat":61.111453,"lng":-149.8780899}},{"address1":"7095 Gladiola Street","address2":"","city":"Arvada","state":"CO","postalCode":"80004","coordinates":{"lat":39.824892,"lng":-105.162799}},{"address1":"21 Glenoak Lane Northwest","address2":"B","city":"Glen Burnie","state":"MD","postalCode":"21061","coordinates":{"lat":39.170174,"lng":-76.62381599999999}},{"address1":"11140 West 60th Avenue","address2":"","city":"Arvada","state":"CO","postalCode":"80004","coordinates":{"lat":39.805639,"lng":-105.122694}},{"address1":"1780 Poplar Ridge Road","address2":"","city":"Pasadena","state":"MD","postalCode":"21122","coordinates":{"lat":39.131587,"lng":-76.470202}},{"address1":"1636 Briarview Court","address2":"","city":"Severn","state":"MD","postalCode":"21144","coordinates":{"lat":39.12539599999999,"lng":-76.704015}},{"address1":"8380 Lockwood Road","address2":"","city":"Pasadena","state":"MD","postalCode":"21122","coordinates":{"lat":39.110554,"lng":-76.480541}},{"address1":"3604 West Market Street","address2":"","city":"Louisville","state":"KY","postalCode":"40212","coordinates":{"lat":38.260966,"lng":-85.80990299999999}},{"address1":"223 Main Street","address2":"","city":"Nashville","state":"TN","postalCode":"37213","coordinates":{"lat":36.171421,"lng":-86.770258}},{"address1":"919 Windsor Avenue","address2":"","city":"Annapolis","state":"MD","postalCode":"21403","coordinates":{"lat":38.968518,"lng":-76.4905689}},{"address1":"921 Woodmont Boulevard","address2":"","city":"Nashville","state":"TN","postalCode":"37204","coordinates":{"lat":36.110197,"lng":-86.784391}},{"address1":"109 Cambridge Station Road","address2":"","city":"Louisville","state":"KY","postalCode":"40223","coordinates":{"lat":38.244527,"lng":-85.56912799999999}},{"address1":"7400 West Arrowhead Clubhouse Drive","address2":"#1043","city":"Glendale","state":"AZ","postalCode":"85308","coordinates":{"lat":33.66589,"lng":-112.217955}},{"address1":"11160 Vosikof Place","address2":"","city":"Anchorage","state":"AK","postalCode":"99507","coordinates":{"lat":61.11972100000001,"lng":-149.726504}},{"address1":"46710 Crawford Street","address2":"#APT 32","city":"Fremont","state":"CA","postalCode":"94539","coordinates":{"lat":37.4924962,"lng":-121.9246934}},{"address1":"12300 Apache Avenue","address2":"#107","city":"Savannah","state":"GA","postalCode":"31419","coordinates":{"lat":31.976364,"lng":-81.16868699999999}},{"address1":"400 D Street","address2":"#STE 1B","city":"Anchorage","state":"AK","postalCode":"99501","coordinates":{"lat":61.2182493,"lng":-149.8894168}},{"address1":"6391 West 60th Avenue","address2":"#210","city":"Arvada","state":"CO","postalCode":"80003","coordinates":{"lat":39.8060295,"lng":-105.0667699}},{"address1":"6000 Parker Drive","address2":"","city":"Deale","state":"MD","postalCode":"20751","coordinates":{"lat":38.780208,"lng":-76.539991}},{"address1":"5708 West Union Hills Drive","address2":"","city":"Glendale","state":"AZ","postalCode":"85308","coordinates":{"lat":33.655011,"lng":-112.1833113}},{"address1":"402 Carlton Place","address2":"","city":"Goodlettsville","state":"TN","postalCode":"37072","coordinates":{"lat":36.337076,"lng":-86.726753}},{"address1":"5110 East Shoshone Avenue","address2":"","city":"Orange","state":"CA","postalCode":"92867","coordinates":{"lat":33.814782,"lng":-117.798075}},{"address1":"7725 Ney Avenue","address2":"","city":"Oakland","state":"CA","postalCode":"94605","coordinates":{"lat":37.767338,"lng":-122.167775}},{"address1":"3377 Sandstone Court","address2":"","city":"Pleasanton","state":"CA","postalCode":"94588","coordinates":{"lat":37.680463,"lng":-121.860128}},{"address1":"2835 Jed Road","address2":"","city":"Escondido","state":"CA","postalCode":"92027","coordinates":{"lat":33.140046,"lng":-117.032721}},{"address1":"2455 Manchester Drive","address2":"","city":"The Village","state":"OK","postalCode":"73120","coordinates":{"lat":35.576392,"lng":-97.55644629999999}},{"address1":"305 Becket Avenue","address2":"","city":"Louisville","state":"KY","postalCode":"40118","coordinates":{"lat":38.1105293,"lng":-85.76877340000001}},{"address1":"461 Alder Street","address2":"","city":"Eureka","state":"CA","postalCode":"95503","coordinates":{"lat":40.76621,"lng":-124.164174}},{"address1":"9176 Ellis Way","address2":"","city":"Arvada","state":"CO","postalCode":"80005","coordinates":{"lat":39.8624095,"lng":-105.1574648}},{"address1":"1930 Churchview Court","address2":"","city":"Millersville","state":"MD","postalCode":"21108","coordinates":{"lat":39.0455029,"lng":-76.654788}},{"address1":"10151 West 64th Avenue","address2":"","city":"Arvada","state":"CO","postalCode":"80004","coordinates":{"lat":39.813372,"lng":-105.111394}},{"address1":"Cato Road","address2":"","city":"Nashville","state":"TN","postalCode":"37218","coordinates":{"lat":36.2193041,"lng":-86.8741757}},{"address1":"1254 Muldoon Road","address2":"","city":"Anchorage","state":"AK","postalCode":"99504","coordinates":{"lat":61.2099918,"lng":-149.7342058}},{"address1":"3701 Lake Towne Drive","address2":"","city":"Nashville","state":"TN","postalCode":"37013","coordinates":{"lat":36.068871,"lng":-86.612042}},{"address1":"1267 Martin Street","address2":"#203","city":"Nashville","state":"TN","postalCode":"37203","coordinates":{"lat":36.1404897,"lng":-86.7695179}},{"address1":"3402 Prestwood Drive","address2":"#5","city":"Louisville","state":"KY","postalCode":"40219","coordinates":{"lat":38.162681,"lng":-85.699162}},{"address1":"9730 West 81st Avenue","address2":"","city":"Arvada","state":"CO","postalCode":"80005","coordinates":{"lat":39.8438501,"lng":-105.1058431}},{"address1":"1220 Crow Berry Circle","address2":"","city":"Anchorage","state":"AK","postalCode":"99515","coordinates":{"lat":61.127501,"lng":-149.859694}},{"address1":"1011 Devon Drive","address2":"","city":"Hayward","state":"CA","postalCode":"94542","coordinates":{"lat":37.65444100000001,"lng":-122.067741}},{"address1":"706 Seagrove Road","address2":"","city":"Glen Burnie","state":"MD","postalCode":"21060","coordinates":{"lat":39.163384,"lng":-76.609205}},{"address1":"120 Wells Avenue","address2":"","city":"Glen Burnie","state":"MD","postalCode":"21061","coordinates":{"lat":39.180259,"lng":-76.63452}},{"address1":"2203 7th Street Road","address2":"","city":"Louisville","state":"KY","postalCode":"40208","coordinates":{"lat":38.218107,"lng":-85.779006}},{"address1":"280 Blue Moon Crossing","address2":"#604","city":"Pooler","state":"GA","postalCode":"31322","coordinates":{"lat":32.0825847,"lng":-81.2864257}},{"address1":"119 Antioch Pike","address2":"","city":"Nashville","state":"TN","postalCode":"37211","coordinates":{"lat":36.10072,"lng":-86.72331}},{"address1":"7187 Holland Court","address2":"","city":"Arvada","state":"CO","postalCode":"80005","coordinates":{"lat":39.8271442,"lng":-105.1034456}},{"address1":"6630 MacArthur Boulevard","address2":"#19","city":"Oakland","state":"CA","postalCode":"94605","coordinates":{"lat":37.7724559,"lng":-122.1773575}},{"address1":"5628 West Tonopah Drive","address2":"","city":"Glendale","state":"AZ","postalCode":"85308","coordinates":{"lat":33.6710947,"lng":-112.1810955}},{"address1":"316 Sourwood Court","address2":"R","city":"Millersville","state":"MD","postalCode":"21108","coordinates":{"lat":39.100198,"lng":-76.606707}},{"address1":"4725 Royal Oak Drive","address2":"","city":"Oklahoma City","state":"OK","postalCode":"73135","coordinates":{"lat":35.417909,"lng":-97.448348}},{"address1":"219 Shana Road","address2":"","city":"Glen Burnie","state":"MD","postalCode":"21060","coordinates":{"lat":39.1528017,"lng":-76.60245239999999}},{"address1":"501 Running Creek Place","address2":"","city":"Louisville","state":"KY","postalCode":"40243","coordinates":{"lat":38.234585,"lng":-85.536647}},{"address1":"6730 North 59th Drive","address2":"#4","city":"Glendale","state":"AZ","postalCode":"85301","coordinates":{"lat":33.5360084,"lng":-112.1882161}},{"address1":"8752 Pierce Way","address2":"#127","city":"Arvada","state":"CO","postalCode":"80003","coordinates":{"lat":39.855201,"lng":-105.0707645}},{"address1":"6420 Via Baron","address2":"","city":"Rancho Palos Verdes","state":"CA","postalCode":"90275","coordinates":{"lat":33.741162,"lng":-118.390767}},{"address1":"2237 Northwest 18th Street","address2":"","city":"Oklahoma City","state":"OK","postalCode":"73107","coordinates":{"lat":35.4882133,"lng":-97.5513414}},{"address1":"7404 West Crest Lane","address2":"","city":"Glendale","state":"AZ","postalCode":"85310","coordinates":{"lat":33.6851098,"lng":-112.2167229}},{"address1":"302 Elberta Street","address2":"","city":"Nashville","state":"TN","postalCode":"37210","coordinates":{"lat":36.119165,"lng":-86.745851}},{"address1":"7609 Doris Place","address2":"","city":"Oklahoma City","state":"OK","postalCode":"73162","coordinates":{"lat":35.5759649,"lng":-97.64877299999999}},{"address1":"826 South Hancock Street","address2":"","city":"Louisville","state":"KY","postalCode":"40203","coordinates":{"lat":38.2408519,"lng":-85.744652}},{"address1":"5205 West Thunderbird Road","address2":"#1042","city":"Glendale","state":"AZ","postalCode":"85306","coordinates":{"lat":33.6095902,"lng":-112.1737799}},{"address1":"3526 Sutton Loop","address2":"","city":"Fremont","state":"CA","postalCode":"94536","coordinates":{"lat":37.5583435,"lng":-121.9995133}},{"address1":"5224 Wasena Avenue","address2":"","city":"Baltimore","state":"MD","postalCode":"21225","coordinates":{"lat":39.223779,"lng":-76.60339499999999}},{"address1":"2316 Northwest 113th Street","address2":"","city":"Oklahoma City","state":"OK","postalCode":"73120","coordinates":{"lat":35.585194,"lng":-97.555205}},{"address1":"8040 Cranberry Street","address2":"","city":"Anchorage","state":"AK","postalCode":"99502","coordinates":{"lat":61.147552,"lng":-149.937499}},{"address1":"6143 Prosperity Drive","address2":"#APT 000001","city":"Anchorage","state":"AK","postalCode":"99504","coordinates":{"lat":61.19966700000001,"lng":-149.765295}},{"address1":"4696 Bull Run Road","address2":"","city":"Ashland City","state":"TN","postalCode":"37015","coordinates":{"lat":36.241285,"lng":-86.940741}},{"address1":"1780 142nd Avenue","address2":"","city":"San Leandro","state":"CA","postalCode":"94578","coordinates":{"lat":37.7168246,"lng":-122.1336681}},{"address1":"6657 West Rose Garden Lane","address2":"","city":"Glendale","state":"AZ","postalCode":"85308","coordinates":{"lat":33.676018,"lng":-112.201658}},{"address1":"3810 Camp Ground Road","address2":"#8","city":"Louisville","state":"KY","postalCode":"40211","coordinates":{"lat":38.2132774,"lng":-85.8304088}},{"address1":"25721 Berryhill Road","address2":"","city":"Anchorage","state":"AK","postalCode":"99577","coordinates":{"lat":61.291218,"lng":-149.40241}},{"address1":"503 Orchard Road","address2":"","city":"Glen Burnie","state":"MD","postalCode":"21061","coordinates":{"lat":39.19076099999999,"lng":-76.64618}},{"address1":"517 Glenpark Drive","address2":"","city":"Nashville","state":"TN","postalCode":"37217","coordinates":{"lat":36.113677,"lng":-86.706594}},{"address1":"3483 Canyon Creek Drive","address2":"","city":"San Jose","state":"CA","postalCode":"95132","coordinates":{"lat":37.414296,"lng":-121.846876}},{"address1":"7822 Club Crest Drive","address2":"","city":"Arvada","state":"CO","postalCode":"80005","coordinates":{"lat":39.8368309,"lng":-105.093756}},{"address1":"5102 Ander Drive","address2":"","city":"Brentwood","state":"TN","postalCode":"37027","coordinates":{"lat":36.0025004,"lng":-86.6944901}},{"address1":"1358 Scenic Avenue","address2":"R B","city":"Berkeley","state":"CA","postalCode":"94708","coordinates":{"lat":37.8830528,"lng":-122.2632462}},{"address1":"3420 Northwest 41st Street","address2":"","city":"Oklahoma City","state":"OK","postalCode":"73112","coordinates":{"lat":35.513392,"lng":-97.57815599999999}},{"address1":"18330 North 79th Avenue","address2":"#3155","city":"Glendale","state":"AZ","postalCode":"85308","coordinates":{"lat":33.6487128,"lng":-112.2313289}},{"address1":"10891 Kamishak Bay Circle","address2":"","city":"Anchorage","state":"AK","postalCode":"99515","coordinates":{"lat":61.122221,"lng":-149.948331}},{"address1":"5306 Ritchie Highway","address2":"","city":"Baltimore","state":"MD","postalCode":"21225","coordinates":{"lat":39.221978,"lng":-76.614183}},{"address1":"1300 East Dowling Road","address2":"","city":"Anchorage","state":"AK","postalCode":"99518","coordinates":{"lat":61.1663648,"lng":-149.858972}},{"address1":"417 West Park Place","address2":"","city":"Oklahoma City","state":"OK","postalCode":"73103","coordinates":{"lat":35.479318,"lng":-97.5200009}},{"address1":"10129 Spring Gate Drive","address2":"","city":"Louisville","state":"KY","postalCode":"40241","coordinates":{"lat":38.312891,"lng":-85.562299}},{"address1":"10277 West 52nd Place","address2":"#211","city":"Wheat Ridge","state":"CO","postalCode":"80033","coordinates":{"lat":39.791729,"lng":-105.112499}},{"address1":"8442 Everett Way","address2":"A","city":"Arvada","state":"CO","postalCode":"80005","coordinates":{"lat":39.850942,"lng":-105.096599}},{"address1":"5161 Jefferson Boulevard","address2":"#202","city":"Louisville","state":"KY","postalCode":"40219","coordinates":{"lat":38.1579108,"lng":-85.67098399999999}},{"address1":"12420 West Montebello Avenue","address2":"","city":"Litchfield Park","state":"AZ","postalCode":"85340","coordinates":{"lat":33.519491,"lng":-112.32613}},{"address1":"501 Holly Avenue","address2":"","city":"Pooler","state":"GA","postalCode":"31322","coordinates":{"lat":32.120593,"lng":-81.254496}},{"address1":"16502 South Main Street","address2":"#5","city":"Gardena","state":"CA","postalCode":"90248","coordinates":{"lat":33.8816216,"lng":-118.2753946}},{"address1":"1194 Cragmont Avenue","address2":"M","city":"Berkeley","state":"CA","postalCode":"94708","coordinates":{"lat":37.8880229,"lng":-122.256999}},{"address1":"6434 Wright Street","address2":"","city":"Arvada","state":"CO","postalCode":"80004","coordinates":{"lat":39.813486,"lng":-105.140068}},{"address1":"14300 Leesa Lane","address2":"","city":"Edmond","state":"OK","postalCode":"73013","coordinates":{"lat":35.615266,"lng":-97.417683}},{"address1":"2728 Hale Avenue","address2":"","city":"Louisville","state":"KY","postalCode":"40211","coordinates":{"lat":38.2390813,"lng":-85.79926999999999}},{"address1":"24 Haven Drive","address2":"","city":"Savannah","state":"GA","postalCode":"31406","coordinates":{"lat":32.0070989,"lng":-81.072757}},{"address1":"8642 Yule Street","address2":"","city":"Arvada","state":"CO","postalCode":"80007","coordinates":{"lat":39.8532241,"lng":-105.2021539}},{"address1":"2555 West 69th Court","address2":"","city":"Anchorage","state":"AK","postalCode":"99502","coordinates":{"lat":61.158468,"lng":-149.933297}},{"address1":"5434 Cedar Ash Crossing","address2":"","city":"Nashville","state":"TN","postalCode":"37013","coordinates":{"lat":36.03928,"lng":-86.6286669}},{"address1":"205 West Montgomery Cross Road","address2":"#1602","city":"Savannah","state":"GA","postalCode":"31406","coordinates":{"lat":31.9976258,"lng":-81.1333921}},{"address1":"880 General George Patton Road","address2":"","city":"Nashville","state":"TN","postalCode":"37221","coordinates":{"lat":36.066698,"lng":-86.945662}},{"address1":"2236 Susitna Drive","address2":"","city":"Anchorage","state":"AK","postalCode":"99517","coordinates":{"lat":61.199596,"lng":-149.949076}},{"address1":"474 Merritt Avenue","address2":"","city":"Oakland","state":"CA","postalCode":"94610","coordinates":{"lat":37.8064419,"lng":-122.248422}},{"address1":"7030 West Krall Street","address2":"","city":"Glendale","state":"AZ","postalCode":"85303","coordinates":{"lat":33.534067,"lng":-112.210763}},{"address1":"512 Tennyson Road","address2":"","city":"Hayward","state":"CA","postalCode":"94544","coordinates":{"lat":37.6324522,"lng":-122.0672661}},{"address1":"1515 Excelsior Avenue","address2":"","city":"Oakland","state":"CA","postalCode":"94602","coordinates":{"lat":37.8019867,"lng":-122.2252044}},{"address1":"36 Saint Ives Drive","address2":"","city":"Savannah","state":"GA","postalCode":"31419","coordinates":{"lat":31.976984,"lng":-81.223991}},{"address1":"72 Salmon Road","address2":"","city":"Alameda","state":"CA","postalCode":"94502","coordinates":{"lat":37.739659,"lng":-122.255689}},{"address1":"407 West Hillwood Drive","address2":"","city":"Nashville","state":"TN","postalCode":"37205","coordinates":{"lat":36.12585,"lng":-86.867256}},{"address1":"1890 Orchard View Road","address2":"","city":"Roseville","state":"CA","postalCode":"95747","coordinates":{"lat":38.7943511,"lng":-121.3518236}},{"address1":"2500 Medallion Drive","address2":"#APT 148","city":"Union City","state":"CA","postalCode":"94587","coordinates":{"lat":37.6053127,"lng":-122.0528926}},{"address1":"2506 West Madison Street","address2":"","city":"Louisville","state":"KY","postalCode":"40211","coordinates":{"lat":38.253755,"lng":-85.7933322}},{"address1":"3031 Montgomery Street","address2":"","city":"Savannah","state":"GA","postalCode":"31405","coordinates":{"lat":32.050203,"lng":-81.10771}},{"address1":"9360 Hester Beasley Road","address2":"","city":"Nashville","state":"TN","postalCode":"37221","coordinates":{"lat":36.018232,"lng":-87.025104}},{"address1":"1112 Flat Rock Road","address2":"","city":"Louisville","state":"KY","postalCode":"40245","coordinates":{"lat":38.251812,"lng":-85.43454}},{"address1":"206 Blue Marlin Drive","address2":"","city":"Savannah","state":"GA","postalCode":"31410","coordinates":{"lat":32.04196,"lng":-81.017915}},{"address1":"903 East 20th Avenue","address2":"","city":"Anchorage","state":"AK","postalCode":"99501","coordinates":{"lat":61.20205009999999,"lng":-149.8649062}},{"address1":"1011 Bell Avenue","address2":"","city":"Glen Burnie","state":"MD","postalCode":"21060","coordinates":{"lat":39.177114,"lng":-76.59223899999999}},{"address1":"700 Winston Place","address2":"","city":"Anchorage","state":"AK","postalCode":"99504","coordinates":{"lat":61.215882,"lng":-149.737337}},{"address1":"12330 Old Glenn Highway","address2":"#STE 8","city":"Anchorage","state":"AK","postalCode":"99577","coordinates":{"lat":61.3316902,"lng":-149.5659584}},{"address1":"21 Soling Avenue","address2":"","city":"Savannah","state":"GA","postalCode":"31419","coordinates":{"lat":32.0376484,"lng":-81.2540562}},{"address1":"4405 West Solano Drive South","address2":"","city":"Glendale","state":"AZ","postalCode":"85301","coordinates":{"lat":33.520529,"lng":-112.153858}},{"address1":"7645 Marshall Street","address2":"","city":"Arvada","state":"CO","postalCode":"80003","coordinates":{"lat":39.835952,"lng":-105.070063}},{"address1":"5959 North 55th Avenue","address2":"","city":"Glendale","state":"AZ","postalCode":"85301","coordinates":{"lat":33.522793,"lng":-112.176818}},{"address1":"210 Long Hill Court","address2":"","city":"Pasadena","state":"MD","postalCode":"21122","coordinates":{"lat":39.127229,"lng":-76.572811}},{"address1":"7915 Depew Street","address2":"","city":"Arvada","state":"CO","postalCode":"80003","coordinates":{"lat":39.8393109,"lng":-105.0589803}},{"address1":"8432 West 78th Circle","address2":"","city":"Arvada","state":"CO","postalCode":"80005","coordinates":{"lat":39.836549,"lng":-105.092974}},{"address1":"11724 Rushmore","address2":"","city":"Oklahoma City","state":"OK","postalCode":"73162","coordinates":{"lat":35.59008300000001,"lng":-97.640506}},{"address1":"4807 North Grove Avenue","address2":"","city":"Warr Acres","state":"OK","postalCode":"73122","coordinates":{"lat":35.5203601,"lng":-97.6147122}},{"address1":"6069 Jay Street","address2":"","city":"Arvada","state":"CO","postalCode":"80003","coordinates":{"lat":39.8067818,"lng":-105.0647795}},{"address1":"10484 West 82nd Avenue","address2":"","city":"Arvada","state":"CO","postalCode":"80005","coordinates":{"lat":39.848487,"lng":-105.116874}},{"address1":"7529 Perryman Court","address2":"","state":"MD","postalCode":"21226","coordinates":{"lat":39.173785,"lng":-76.548604}},{"address1":"111 Edgewater Road","address2":"#115","city":"Savannah","state":"GA","postalCode":"31406","coordinates":{"lat":31.994345,"lng":-81.1165709}},{"address1":"1250 Pram Place","address2":"","city":"Annapolis","state":"MD","postalCode":"21403","coordinates":{"lat":38.941607,"lng":-76.47219299999999}},{"address1":"204 Blue Hills Drive","address2":"","city":"Nashville","state":"TN","postalCode":"37214","coordinates":{"lat":36.166786,"lng":-86.68691199999999}},{"address1":"200 Hialeah Drive","address2":"","city":"Glen Burnie","state":"MD","postalCode":"21060","coordinates":{"lat":39.200188,"lng":-76.609284}},{"address1":"1513 Southeast 9th Street","address2":"","city":"Moore","state":"OK","postalCode":"73160","coordinates":{"lat":35.329431,"lng":-97.465397}},{"address1":"3207 Art Hall Lane","address2":"","city":"Pasadena","state":"MD","postalCode":"21122","coordinates":{"lat":39.1347116,"lng":-76.5331654}},{"address1":"3827 West Chapman Avenue","address2":"","city":"Orange","state":"CA","postalCode":"92868","coordinates":{"lat":33.789253,"lng":-117.894846}},{"address1":"1244 South 4th Street","address2":"#211","city":"Louisville","state":"KY","postalCode":"40203","coordinates":{"lat":38.233598,"lng":-85.7610867}},{"address1":"11330 Elmore Road","address2":"","city":"Anchorage","state":"AK","postalCode":"99516","coordinates":{"lat":61.117906,"lng":-149.806908}},{"address1":"6225 West Citrus Way","address2":"","city":"Glendale","state":"AZ","postalCode":"85301","coordinates":{"lat":33.5293,"lng":-112.193887}},{"address1":"6473 Zephyr Street","address2":"","city":"Arvada","state":"CO","postalCode":"80004","coordinates":{"lat":39.814341,"lng":-105.085116}},{"address1":"112 Joyner Avenue","address2":"","city":"Nashville","state":"TN","postalCode":"37210","coordinates":{"lat":36.116434,"lng":-86.742216}},{"address1":"21950 Arnold Center Road","address2":"","city":"Carson","state":"CA","postalCode":"90810","coordinates":{"lat":33.8272706,"lng":-118.2302826}},{"address1":"10826 Pointe Royal Drive","address2":"","city":"Bakersfield","state":"CA","postalCode":"93311","coordinates":{"lat":35.2930007,"lng":-119.1225908}},{"address1":"5801 South Watterson Trail","address2":"","city":"Louisville","state":"KY","postalCode":"40291","coordinates":{"lat":38.164425,"lng":-85.612599}},{"address1":"1324 Beddington Park","address2":"","city":"Nashville","state":"TN","postalCode":"37215","coordinates":{"lat":36.057298,"lng":-86.823065}},{"address1":"8063 Regency Drive","address2":"","city":"Pleasanton","state":"CA","postalCode":"94588","coordinates":{"lat":37.661416,"lng":-121.908019}},{"address1":"40700 Penn Lane","address2":"","city":"Fremont","state":"CA","postalCode":"94538","coordinates":{"lat":37.540659,"lng":-121.957693}},{"address1":"7822 West Peppertree Lane","address2":"","city":"Glendale","state":"AZ","postalCode":"85303","coordinates":{"lat":33.5358779,"lng":-112.227705}},{"address1":"4109 General Bate Drive","address2":"","city":"Nashville","state":"TN","postalCode":"37204","coordinates":{"lat":36.099427,"lng":-86.787756}},{"address1":"565 Amber Isle","address2":"","city":"Alameda","state":"CA","postalCode":"94501","coordinates":{"lat":37.764288,"lng":-122.268645}},{"address1":"15 Lakewood Drive","address2":"","city":"Thunderbolt","state":"GA","postalCode":"31410","coordinates":{"lat":32.037339,"lng":-81.038281}},{"address1":"2209 June Drive","address2":"","city":"Nashville","state":"TN","postalCode":"37214","coordinates":{"lat":36.16848,"lng":-86.695241}},{"address1":"8886 West 77th Circle","address2":"","city":"Arvada","state":"CO","postalCode":"80005","coordinates":{"lat":39.838824,"lng":-105.0971129}},{"address1":"1900 Lincoln Street","address2":"#206","city":"Savannah","state":"GA","postalCode":"31401","coordinates":{"lat":32.0574393,"lng":-81.0962614}},{"address1":"1990 Poplar Ridge Road","address2":"","city":"Pasadena","state":"MD","postalCode":"21122","coordinates":{"lat":39.130041,"lng":-76.457656}},{"address1":"406 East Waldburg Street","address2":"","city":"Savannah","state":"GA","postalCode":"31401","coordinates":{"lat":32.064691,"lng":-81.092321}},{"address1":"8506 Laviento Drive","address2":"","city":"Anchorage","state":"AK","postalCode":"99515","coordinates":{"lat":61.143603,"lng":-149.8784269}},{"address1":"3609 Meadow Drive","address2":"","city":"Nashville","state":"TN","postalCode":"37215","coordinates":{"lat":36.12182,"lng":-86.827985}},{"address1":"1709 Queensbury Road","address2":"","city":"Moore","state":"OK","postalCode":"73160","coordinates":{"lat":35.3546959,"lng":-97.507938}},{"address1":"6081 Jay Street","address2":"","city":"Arvada","state":"CO","postalCode":"80003","coordinates":{"lat":39.8070279,"lng":-105.064621}},{"address1":"7124 West Morrow Drive","address2":"","city":"Glendale","state":"AZ","postalCode":"85308","coordinates":{"lat":33.6547986,"lng":-112.2129638}},{"address1":"1311 Northwest 98th Street","address2":"","city":"Oklahoma City","state":"OK","postalCode":"73114","coordinates":{"lat":35.5705807,"lng":-97.53640229999999}},{"address1":"11985 West 56th Drive","address2":"","city":"Arvada","state":"CO","postalCode":"80002","coordinates":{"lat":39.7975973,"lng":-105.1342307}},{"address1":"7101 West Beardsley Road","address2":"#151","city":"Glendale","state":"AZ","postalCode":"85308","coordinates":{"lat":33.6661742,"lng":-112.2118385}},{"address1":"174 Village Lake Drive","address2":"","city":"Pooler","state":"GA","postalCode":"31322","coordinates":{"lat":32.137225,"lng":-81.261607}},{"address1":"2134 West Mills Drive","address2":"","city":"Orange","state":"CA","postalCode":"92868","coordinates":{"lat":33.786584,"lng":-117.875665}},{"address1":"2036 Hermitage Hills Drive","address2":"","city":"Gambrills","state":"MD","postalCode":"21054","coordinates":{"lat":38.9951,"lng":-76.65160999999999}},{"address1":"6802 North 67th Avenue","address2":"#19201","city":"Glendale","state":"AZ","postalCode":"85301","coordinates":{"lat":33.5359555,"lng":-112.2043774}},{"address1":"5222 West Laurie Lane","address2":"","city":"Glendale","state":"AZ","postalCode":"85302","coordinates":{"lat":33.5587639,"lng":-112.172235}},{"address1":"7 River Otter Lane","address2":"","city":"Savannah","state":"GA","postalCode":"31411","coordinates":{"lat":31.938468,"lng":-81.06171499999999}},{"address1":"136 Acacia Drive","address2":"","city":"Blue Lake","state":"CA","postalCode":"95525","coordinates":{"lat":40.879484,"lng":-123.978726}},{"address1":"3784 Milky Way Drive","address2":"","city":"Anchorage","state":"AK","postalCode":"99517","coordinates":{"lat":61.18994259999999,"lng":-149.9552596}},{"address1":"9920 West 81st Avenue","address2":"","city":"Arvada","state":"CO","postalCode":"80005","coordinates":{"lat":39.8446204,"lng":-105.1083834}},{"address1":"4408 Bonaparte Boulevard","address2":"","city":"Midwest City","state":"OK","postalCode":"73110","coordinates":{"lat":35.482651,"lng":-97.38337399999999}},{"address1":"8378 Cole Street","address2":"","city":"Arvada","state":"CO","postalCode":"80005","coordinates":{"lat":39.8479398,"lng":-105.1526049}},{"address1":"3404 Lakeside Drive","address2":"","city":"Anchorage","state":"AK","postalCode":"99515","coordinates":{"lat":61.131176,"lng":-149.943144}},{"address1":"243 Kentucky Avenue","address2":"","city":"Pasadena","state":"MD","postalCode":"21122","coordinates":{"lat":39.09807199999999,"lng":-76.477169}},{"address1":"2106 Standard Avenue","address2":"","city":"Louisville","state":"KY","postalCode":"40210","coordinates":{"lat":38.231378,"lng":-85.7922619}},{"address1":"503 Blackwood Terrace Southeast","address2":"","city":"Calhoun","state":"GA","postalCode":"30701","coordinates":{"lat":34.459017,"lng":-84.914659}},{"address1":"7947 Citadel Drive","address2":"","city":"Severn","state":"MD","postalCode":"21144","coordinates":{"lat":39.131279,"lng":-76.729832}},{"address1":"130 Carolina Cherry Circle","address2":"","city":"Pooler","state":"GA","postalCode":"31322","coordinates":{"lat":32.1485911,"lng":-81.2620116}},{"address1":"5330 Shaun Circle","address2":"#APT 000002","city":"Anchorage","state":"AK","postalCode":"99507","coordinates":{"lat":61.132468,"lng":-149.782196}},{"address1":"6431 Shattuck Avenue","address2":"B","city":"Oakland","state":"CA","postalCode":"94609","coordinates":{"lat":37.85015,"lng":-122.266142}},{"address1":"33300 Mission Boulevard","address2":"#APT 174","city":"Union City","state":"CA","postalCode":"94587","coordinates":{"lat":37.6085241,"lng":-122.0190805}},{"address1":"1819 14th Avenue","address2":"","city":"Nashville","state":"TN","postalCode":"37208","coordinates":{"lat":36.1813209,"lng":-86.80847899999999}},{"address1":"11225 West 79th Drive","address2":"","city":"Arvada","state":"CO","postalCode":"80005","coordinates":{"lat":39.840784,"lng":-105.124533}},{"address1":"942 Lewis Road","address2":"","state":"CA","postalCode":"95076","coordinates":{"lat":36.882406,"lng":-121.701963}},{"address1":"4331 Foeburn Lane","address2":"","city":"Louisville","state":"KY","postalCode":"40207","coordinates":{"lat":38.26753,"lng":-85.634376}},{"address1":"8595 North 71st Avenue","address2":"#1","city":"Glendale","state":"AZ","postalCode":"85301","coordinates":{"lat":33.5607109,"lng":-112.2092492}},{"address1":"7230 Montagne Circle","address2":"","city":"Anchorage","state":"AK","postalCode":"99507","coordinates":{"lat":61.155155,"lng":-149.71361}},{"address1":"18505 Onyx Avenue","address2":"","city":"Waddell","state":"AZ","postalCode":"85355","coordinates":{"lat":33.574278,"lng":-112.457342}},{"address1":"701 Mussel Slough Road","address2":"","city":"Hanford","state":"CA","postalCode":"93230","coordinates":{"lat":36.353319,"lng":-119.655288}},{"address1":"1797 Pasatiempo Drive","address2":"","city":"Chico","state":"CA","postalCode":"95928","coordinates":{"lat":39.6777229,"lng":-121.7704692}},{"address1":"7966 Chase Circle","address2":"#96","city":"Arvada","state":"CO","postalCode":"80003","coordinates":{"lat":39.840388,"lng":-105.05578}},{"address1":"1046 Dudley Avenue","address2":"","city":"Louisville","state":"KY","postalCode":"40204","coordinates":{"lat":38.2416535,"lng":-85.7188075}},{"address1":"2121 Stepping Stone Trail","address2":"","city":"Edmond","state":"OK","postalCode":"73013","coordinates":{"lat":35.6315432,"lng":-97.51250619999999}},{"address1":"3824 Rosewood Court","address2":"","city":"Midwest City","state":"OK","postalCode":"73110","coordinates":{"lat":35.4798788,"lng":-97.39408019999999}},{"address1":"1357 Addison Street","address2":"","city":"Berkeley","state":"CA","postalCode":"94702","coordinates":{"lat":37.8692812,"lng":-122.2846077}},{"address1":"1939 Greenwood Street","address2":"","city":"Savannah","state":"GA","postalCode":"31404","coordinates":{"lat":32.065645,"lng":-81.059235}},{"address1":"328 17th Street","address2":"","city":"Paso Robles","state":"CA","postalCode":"93446","coordinates":{"lat":35.629985,"lng":-120.702516}},{"address1":"1211 Castine Court","address2":"","city":"Pasadena","state":"MD","postalCode":"21122","coordinates":{"lat":39.1404092,"lng":-76.5313772}},{"address1":"716 O Street","address2":"#APT 000010","city":"Anchorage","state":"AK","postalCode":"99501","coordinates":{"lat":61.2151561,"lng":-149.9098424}},{"address1":"3408 Taylorsville Road","address2":"#1","city":"Louisville","state":"KY","postalCode":"40205","coordinates":{"lat":38.2217118,"lng":-85.6571735}},{"address1":"1414 West 7th Avenue","address2":"#APT 000002","city":"Anchorage","state":"AK","postalCode":"99501","coordinates":{"lat":61.2156032,"lng":-149.910416}},{"address1":"6710 Quay Street","address2":"","city":"Arvada","state":"CO","postalCode":"80003","coordinates":{"lat":39.8184397,"lng":-105.0735438}},{"address1":"826 Webster Street","address2":"","city":"Hayward","state":"CA","postalCode":"94544","coordinates":{"lat":37.6410274,"lng":-122.0560558}},{"address1":"105 Bear Creek Parkway","address2":"","city":"Edgewater","state":"MD","postalCode":"21037","coordinates":{"lat":38.901074,"lng":-76.524779}},{"address1":"5928 West Mauna Loa Lane","address2":"","city":"Glendale","state":"AZ","postalCode":"85306","coordinates":{"lat":33.6204899,"lng":-112.18702}},{"address1":"8318 North 57th Drive","address2":"","city":"Glendale","state":"AZ","postalCode":"85302","coordinates":{"lat":33.557537,"lng":-112.183238}},{"address1":"517 West 33rd Street","address2":"","city":"Savannah","state":"GA","postalCode":"31415","coordinates":{"lat":32.0619067,"lng":-81.1050125}},{"address1":"6622 West Mescal Street","address2":"","city":"Glendale","state":"AZ","postalCode":"85304","coordinates":{"lat":33.5863981,"lng":-112.2009439}},{"address1":"5378 Allison Street","address2":"#102","city":"Arvada","state":"CO","postalCode":"80002","coordinates":{"lat":39.7944109,"lng":-105.0860024}},{"address1":"43 Henderson Avenue","address2":"","city":"Savannah","state":"GA","postalCode":"31406","coordinates":{"lat":31.97937899999999,"lng":-81.06062}},{"address1":"20117 Lucas Avenue","address2":"","city":"Anchorage","state":"AK","postalCode":"99577","coordinates":{"lat":61.31413,"lng":-149.50769}},{"address1":"8390 Alkire Street","address2":"","city":"Arvada","state":"CO","postalCode":"80005","coordinates":{"lat":39.849286,"lng":-105.1465489}},{"address1":"1509 Hadley Avenue","address2":"","city":"Nashville","state":"TN","postalCode":"37138","coordinates":{"lat":36.254631,"lng":-86.64751299999999}},{"address1":"6617 North 59th Avenue","address2":"","city":"Glendale","state":"AZ","postalCode":"85301","coordinates":{"lat":33.5338921,"lng":-112.1858285}},{"address1":"11113 North Miller Avenue","address2":"","city":"Oklahoma City","state":"OK","postalCode":"73120","coordinates":{"lat":35.5842038,"lng":-97.5648666}},{"address1":"733 East DeRenne Avenue","address2":"","city":"Savannah","state":"GA","postalCode":"31405","coordinates":{"lat":32.024217,"lng":-81.095602}},{"address1":"105 Inglewood Drive","address2":"","city":"Glen Burnie","state":"MD","postalCode":"21060","coordinates":{"lat":39.174297,"lng":-76.601179}},{"address1":"1718 Underwood Road","address2":"","city":"Gambrills","state":"MD","postalCode":"21054","coordinates":{"lat":39.0032939,"lng":-76.665048}},{"address1":"6990 Pierson Street","address2":"","city":"Arvada","state":"CO","postalCode":"80004","coordinates":{"lat":39.824425,"lng":-105.122103}},{"address1":"5403 Illinois Avenue","address2":"","city":"Nashville","state":"TN","postalCode":"37209","coordinates":{"lat":36.157077,"lng":-86.853827}},{"address1":"115 Falkirk Street","address2":"","city":"Savannah","state":"GA","postalCode":"31407","coordinates":{"lat":32.148764,"lng":-81.167458}},{"address1":"3821 Southwest 25th Street","address2":"","city":"Oklahoma City","state":"OK","postalCode":"73108","coordinates":{"lat":35.4400509,"lng":-97.58666900000001}},{"address1":"6754 Field Street","address2":"","city":"Arvada","state":"CO","postalCode":"80004","coordinates":{"lat":39.8193709,"lng":-105.097531}},{"address1":"3102 Kinvara Lane","address2":"","city":"Louisville","state":"KY","postalCode":"40242","coordinates":{"lat":38.291202,"lng":-85.59211599999999}},{"address1":"29076 Little Big Horn Drive","address2":"","city":"Evergreen","state":"CO","postalCode":"80439","coordinates":{"lat":39.562419,"lng":-105.319477}},{"address1":"1383 Purdue Street","address2":"","city":"San Leandro","state":"CA","postalCode":"94579","coordinates":{"lat":37.695385,"lng":-122.156506}},{"address1":"901 North Lincoln Boulevard","address2":"","city":"Oklahoma City","state":"OK","postalCode":"73104","coordinates":{"lat":35.4766936,"lng":-97.50385539999999}},{"address1":"424 Callan Avenue","address2":"#216","city":"San Leandro","state":"CA","postalCode":"94577","coordinates":{"lat":37.72780789999999,"lng":-122.152331}},{"address1":"3579 2nd Avenue","address2":"","city":"Edgewater","state":"MD","postalCode":"21037","coordinates":{"lat":38.91283200000001,"lng":-76.5224099}},{"address1":"2140 East 56th Avenue","address2":"#APT 11","city":"Anchorage","state":"AK","postalCode":"99507","coordinates":{"lat":61.1699562,"lng":-149.8414879}},{"address1":"800 Old Stage Road","address2":"","city":"Glen Burnie","state":"MD","postalCode":"21061","coordinates":{"lat":39.1480719,"lng":-76.6371115}},{"address1":"1713 Apian Way","address2":"","city":"Edmond","state":"OK","postalCode":"73003","coordinates":{"lat":35.6726548,"lng":-97.4957472}},{"address1":"1300 Lemos Lane","address2":"","city":"Fremont","state":"CA","postalCode":"94539","coordinates":{"lat":37.546996,"lng":-121.951627}},{"address1":"12438 West 83rd Avenue","address2":"","city":"Arvada","state":"CO","postalCode":"80005","coordinates":{"lat":39.847864,"lng":-105.138522}},{"address1":"3616 Echo Lane","address2":"","city":"Nashville","state":"TN","postalCode":"37218","coordinates":{"lat":36.236713,"lng":-86.833956}},{"address1":"3301 Old Muldoon Road","address2":"","city":"Anchorage","state":"AK","postalCode":"99504","coordinates":{"lat":61.1908348,"lng":-149.7340096}},{"address1":"1897 Poplar Ridge Road","address2":"","city":"Pasadena","state":"MD","postalCode":"21122","coordinates":{"lat":39.128818,"lng":-76.4627}},{"address1":"15238 North 65th Avenue","address2":"","city":"Glendale","state":"AZ","postalCode":"85306","coordinates":{"lat":33.6223783,"lng":-112.1988149}},{"address1":"5712 Saulsbury Street","address2":"","city":"Arvada","state":"CO","postalCode":"80002","coordinates":{"lat":39.8006311,"lng":-105.0753746}},{"address1":"3388 Thomasson Lane","address2":"","city":"Fairfield","state":"CA","postalCode":"94534","coordinates":{"lat":38.198231,"lng":-122.106795}},{"address1":"6118 North 60th Avenue","address2":"D","city":"Glendale","state":"AZ","postalCode":"85301","coordinates":{"lat":33.5265263,"lng":-112.1896187}},{"address1":"1817 Beech Street","address2":"","city":"Louisville","state":"KY","postalCode":"40210","coordinates":{"lat":38.225228,"lng":-85.804766}},{"address1":"7802 Titan Court","address2":"","city":"Pasadena","state":"MD","postalCode":"21122","coordinates":{"lat":39.1322645,"lng":-76.5304743}},{"address1":"3534 Saint Lawrence Road","address2":"","city":"Nashville","state":"TN","postalCode":"37080","coordinates":{"lat":36.289224,"lng":-86.877681}},{"address1":"10911 Torrington Road","address2":"","city":"Louisville","state":"KY","postalCode":"40272","coordinates":{"lat":38.0959071,"lng":-85.8628614}},{"address1":"12245 West 71st Place","address2":"","city":"Arvada","state":"CO","postalCode":"80004","coordinates":{"lat":39.8267078,"lng":-105.1366798}},{"address1":"4 Marsh Haven Lane","address2":"","city":"Savannah","state":"GA","postalCode":"31411","coordinates":{"lat":31.890955,"lng":-81.0497989}},{"address1":"2815 Blueridge Place","address2":"","city":"Anchorage","state":"AK","postalCode":"99504","coordinates":{"lat":61.1949009,"lng":-149.7213429}},{"address1":"119 Matthew Lane","address2":"","city":"Nashville","state":"TN","postalCode":"37215","coordinates":{"lat":36.11663619999999,"lng":-86.80955829999999}},{"address1":"1424 Winter Avenue","address2":"","city":"Louisville","state":"KY","postalCode":"40204","coordinates":{"lat":38.2369017,"lng":-85.72480499999999}},{"address1":"5073 West 65th Place","address2":"","city":"Arvada","state":"CO","postalCode":"80003","coordinates":{"lat":39.815543,"lng":-105.05209}},{"address1":"8036 Laketowne Court","address2":"","city":"Severn","state":"MD","postalCode":"21144","coordinates":{"lat":39.1290125,"lng":-76.71450229999999}},{"address1":"1207 Branch Lane","address2":"","city":"Glen Burnie","state":"MD","postalCode":"21061","coordinates":{"lat":39.18226900000001,"lng":-76.617914}},{"address1":"682 Brighton Way","address2":"","city":"Livermore","state":"CA","postalCode":"94551","coordinates":{"lat":37.689729,"lng":-121.791712}},{"address1":"8300 Highway 100","address2":"","city":"Nashville","state":"TN","postalCode":"37221","coordinates":{"lat":36.038777,"lng":-86.96481}},{"address1":"6460 Lacrosse Lane","address2":"","city":"Glen Burnie","state":"MD","postalCode":"21061","coordinates":{"lat":39.196587,"lng":-76.626699}},{"address1":"260 Rio Del Mar Boulevard","address2":"##14","city":"Aptos","state":"CA","postalCode":"95003","coordinates":{"lat":36.967915,"lng":-121.902513}},{"address1":"8934 Arrowrock Trail","address2":"","city":"Smartsville","state":"CA","postalCode":"95977","coordinates":{"lat":39.198651,"lng":-121.280114}},{"address1":"1311 Durrett Lane","address2":"","city":"Louisville","state":"KY","postalCode":"40213","coordinates":{"lat":38.19042350000001,"lng":-85.71786039999999}},{"address1":"4728 Rockland Trail","address2":"","city":"Nashville","state":"TN","postalCode":"37013","coordinates":{"lat":36.032653,"lng":-86.58542399999999}},{"address1":"5644 Kipling Parkway","address2":"#108","city":"Arvada","state":"CO","postalCode":"80002","coordinates":{"lat":39.7989502,"lng":-105.1101977}},{"address1":"9428 North 65th Drive","address2":"","city":"Glendale","state":"AZ","postalCode":"85302","coordinates":{"lat":33.571222,"lng":-112.20045}},{"address1":"637 Britannia Drive","address2":"","city":"Vallejo","state":"CA","postalCode":"94591","coordinates":{"lat":38.10476999999999,"lng":-122.193849}},{"address1":"9740 Rhythm Road","address2":"","city":"Midwest City","state":"OK","postalCode":"73130","coordinates":{"lat":35.44392,"lng":-97.358334}},{"address1":"3613 East 18th Avenue","address2":"","city":"Anchorage","state":"AK","postalCode":"99508","coordinates":{"lat":61.20485339999999,"lng":-149.8135521}},{"address1":"1400 Rosa L Parks Boulevard","address2":"#305","city":"Nashville","state":"TN","postalCode":"37208","coordinates":{"lat":36.179104,"lng":-86.79421200000002}},{"address1":"1960 Sigfrid Court","address2":"","city":"Annapolis","state":"MD","postalCode":"21401","coordinates":{"lat":38.998796,"lng":-76.564554}},{"address1":"1265 Xavier Avenue","address2":"","city":"Hayward","state":"CA","postalCode":"94545","coordinates":{"lat":37.648362,"lng":-122.111063}},{"address1":"2905 Stonebridge Court","address2":"","city":"Norman","state":"OK","postalCode":"73071","coordinates":{"lat":35.183319,"lng":-97.40210499999999}},{"address1":"7002 South Bryant Avenue","address2":"","city":"Oklahoma City","state":"OK","postalCode":"73149","coordinates":{"lat":35.3962378,"lng":-97.45863539999999}},{"address1":"1809 Cedar Drive","address2":"","city":"Severn","state":"MD","postalCode":"21144","coordinates":{"lat":39.139311,"lng":-76.72028999999999}},{"address1":"10312 Parlett Place","address2":"","city":"Cupertino","state":"CA","postalCode":"95014","coordinates":{"lat":37.327683,"lng":-122.031104}},{"address1":"1601 Northwest 22nd Street","address2":"","city":"Oklahoma City","state":"OK","postalCode":"73106","coordinates":{"lat":35.492547,"lng":-97.53696099999999}},{"address1":"1313 Southwest 115th Place","address2":"","city":"Oklahoma City","state":"OK","postalCode":"73170","coordinates":{"lat":35.353499,"lng":-97.540024}},{"address1":"37122 Contra Costa Avenue","address2":"","city":"Fremont","state":"CA","postalCode":"94536","coordinates":{"lat":37.5534511,"lng":-122.0133239}},{"address1":"9106 Ellis Way","address2":"","city":"Arvada","state":"CO","postalCode":"80005","coordinates":{"lat":39.8608291,"lng":-105.1574717}},{"address1":"1841 Logan Street","address2":"","city":"Anchorage","state":"AK","postalCode":"99508","coordinates":{"lat":61.20354099999999,"lng":-149.833058}},{"address1":"2931 Shady Oaks Drive","address2":"","city":"Evans","state":"CO","postalCode":"80620","coordinates":{"lat":40.384469,"lng":-104.726478}},{"address1":"2685 California Street","address2":"#APT 305","city":"Mountain View","state":"CA","postalCode":"94040","coordinates":{"lat":37.4068693,"lng":-122.1129728}},{"address1":"396 Berkshire Drive","address2":"","city":"Riva","state":"MD","postalCode":"21140","coordinates":{"lat":38.94797,"lng":-76.5827259}},{"address1":"6800 West Bell Road","address2":"","city":"Glendale","state":"AZ","postalCode":"85308","coordinates":{"lat":33.638637,"lng":-112.2056183}},{"address1":"6408 Fern Crest Road","address2":"","city":"Louisville","state":"KY","postalCode":"40291","coordinates":{"lat":38.154488,"lng":-85.612144}},{"address1":"11522 Country Spring Court","address2":"","city":"Cupertino","state":"CA","postalCode":"95014","coordinates":{"lat":37.3004559,"lng":-122.049009}},{"address1":"1742 Allerford Drive","address2":"","city":"Hanover","state":"MD","postalCode":"21076","coordinates":{"lat":39.153117,"lng":-76.738421}},{"address1":"4503 North Council Road","address2":"","city":"Bethany","state":"OK","postalCode":"73008","coordinates":{"lat":35.5176604,"lng":-97.65550879999999}},{"address1":"1823 Dinger Road","address2":"","city":"Annapolis","state":"MD","postalCode":"21402","coordinates":{"lat":38.9846907,"lng":-76.4705276}},{"address1":"13213 Spanish Moss Road","address2":"","city":"Savannah","state":"GA","postalCode":"31419","coordinates":{"lat":31.959828,"lng":-81.147904}},{"address1":"1259 Everett Avenue","address2":"","city":"Louisville","state":"KY","postalCode":"40204","coordinates":{"lat":38.23790650000001,"lng":-85.7139049}},{"address1":"4 Chamois Court","address2":"","city":"Pooler","state":"GA","postalCode":"31322","coordinates":{"lat":32.088701,"lng":-81.24825}},{"address1":"12870 Old Seward Highway","address2":"#STE 000105","city":"Anchorage","state":"AK","postalCode":"99515","coordinates":{"lat":61.10396369999999,"lng":-149.8575515}},{"address1":"107 Laurel Green Court","address2":"","city":"Savannah","state":"GA","postalCode":"31419","coordinates":{"lat":32.025628,"lng":-81.24673399999999}},{"address1":"6022 West Alice Avenue","address2":"#3","city":"Glendale","state":"AZ","postalCode":"85302","coordinates":{"lat":33.5640709,"lng":-112.1893361}},{"address1":"4500 Margalo Avenue","address2":"","city":"Bakersfield","state":"CA","postalCode":"93313","coordinates":{"lat":35.305082,"lng":-119.052448}},{"address1":"12901 Mission Circle","address2":"","city":"Anchorage","state":"AK","postalCode":"99516","coordinates":{"lat":61.10380240000001,"lng":-149.8253975}},{"address1":"7106 Bear Creek Drive","address2":"#B3","city":"Saint Matthews","state":"KY","postalCode":"40207","coordinates":{"lat":38.2438929,"lng":-85.6251973}},{"address1":"8526 Preston Highway","address2":"","city":"Louisville","state":"KY","postalCode":"40219","coordinates":{"lat":38.1282719,"lng":-85.68177279999999}},{"address1":"15010 North 59th Avenue","address2":"#261","city":"Glendale","state":"AZ","postalCode":"85306","coordinates":{"lat":33.6214932,"lng":-112.1865942}},{"address1":"5743 Teller Street","address2":"#103","city":"Arvada","state":"CO","postalCode":"80002","coordinates":{"lat":39.80117550000001,"lng":-105.0771143}},{"address1":"3820 North Peniel Avenue","address2":"","city":"Bethany","state":"OK","postalCode":"73008","coordinates":{"lat":35.5097004,"lng":-97.62759249999999}},{"address1":"112 Coleman Boulevard","address2":"","city":"Savannah","state":"GA","postalCode":"31408","coordinates":{"lat":32.1137898,"lng":-81.22341519999999}},{"address1":"6407 West Monte Cristo Avenue","address2":"","city":"Glendale","state":"AZ","postalCode":"85306","coordinates":{"lat":33.631238,"lng":-112.196396}},{"address1":"6080 Frontier Lane","address2":"","city":"Nashville","state":"TN","postalCode":"37211","coordinates":{"lat":36.030597,"lng":-86.73436}},{"address1":"8801 North 63rd Drive","address2":"","city":"Glendale","state":"AZ","postalCode":"85302","coordinates":{"lat":33.5640804,"lng":-112.195287}},{"address1":"8800 Cordell Circle","address2":"#APT 000003","city":"Anchorage","state":"AK","postalCode":"99502","coordinates":{"lat":61.1409305,"lng":-149.9437822}},{"address1":"1208 Elkader Court North","address2":"","city":"Nashville","state":"TN","postalCode":"37013","coordinates":{"lat":36.080049,"lng":-86.60116099999999}},{"address1":"222 Holiday Circle","address2":"","city":"Savannah","state":"GA","postalCode":"31419","coordinates":{"lat":32.02607,"lng":-81.24121199999999}},{"address1":"6216 West Bloomfield Road","address2":"","city":"Glendale","state":"AZ","postalCode":"85304","coordinates":{"lat":33.59866,"lng":-112.192737}},{"address1":"330 Michell Court","address2":"","city":"Livermore","state":"CA","postalCode":"94551","coordinates":{"lat":37.690035,"lng":-121.759468}},{"address1":"2631 Northrup Place","address2":"","city":"Anchorage","state":"AK","postalCode":"99508","coordinates":{"lat":61.1968802,"lng":-149.8365951}},{"address1":"803 18th Avenue South","address2":"","city":"Nashville","state":"TN","postalCode":"37203","coordinates":{"lat":36.1500199,"lng":-86.79477}},{"address1":"631 West 32nd Avenue","address2":"#APT 000134","city":"Anchorage","state":"AK","postalCode":"99503","coordinates":{"lat":61.1916972,"lng":-149.8957374}}],"attribution":["City of Haddam (CT)","Ciy of Hartford (CT)","City of Lyme (CT)","City of Manchester (CT)","City of Watertown (CT)","City of Avon (CT)","Town of Fairfield (CT)","City of Groton (CT)","Office of Geographic Information (MassGIS), Commonwealth of Massachusetts, MassIT (MA)","VT Enhanced 911 Board, VCGI (VT)","City of Huntsville (AL)","City of Montgomery (AL)","Shelby County (AL)","Talladega County (AL)","City of Fayetteville (AR)","Arkansas Geographic Information Office (AR)","City of Washington (DC)","Bay County (FL)","Brevard County (FL)","Charlotte County (FL)","Citrus County (FL)","Clay County (FL)","Highlands County, FL (FL)","Hillsborough County (FL)","City of Savannah (GA)","Gordon County (GA)","Muscogee County (GA)","Sumter County (GA)","Metro Louisville,  LOJIC partners (KY)","Anne Arundel County (MD)","City of Baltimore (MD)","Frederick County (MD)","Oklahoma and Logan Counties - Association of Central Oklahoma Governments (OK)","Kern, Cleveland, Canadian, Logan Counties (OK)","City of Nashville (TN)","Cooke,Fannin,Grayson Counties - Texoma Council of Governments (TX)","Municipality of Anchorage (AK)","Copyright © 2015 Kenai Peninsula Borough (AK)","Matanuska-Susitna Borough (AK)","City of Glendale (AZ)","City of Mesa (AZ)","Alameda County (CA)","Amador County (CA)","City of Berkeley (CA)","Butte County (CA)","City of Bakersfield (CA)","City of Carson (CA)","City of Cupertino (CA)","City of Hayward and Fairview. Licensed for Public Use (CA)","City of Mountain View (CA)","City of Orange (CA)","Contra Costa County (CA)","El Dorando County (CA)","Fresno County (CA)","Humboldt County (CA)","Kern County (CA)","Kings County (CA)","Lake County (CA)","Lassen County (CA)","Los Angeles County (CA)","Madera County (CA)","Marin County (CA)","Merced County (CA)","Mono County (CA)","Monterey County (CA)","Napa County (CA)","County of Nevada, California (CA)","Orange County (CA)","City of Palo Alto (CA)","County of Placer (CA)","Secramento County (CA)","San Bernardino County (CA)","San Diego Geographic Information Source - JPA (CA)","San Joaquin County (CA)","San Luis Obispo County (CA)","San Mateo County (CA)","Santa Barbara County (CA)","Santa Clara County (CA)","Santa Cruz County (CA)","Shasta County (CA)","Solano County (CA)","Sonoma County (CA)","Stanislaus County (CA)","Tuolumne County (CA)","Yolo County (CA)","Yuba County (CA)","Arapahoe County (CO)","Archuleta County (CO)","City of Arvada (CO)","City of Aurora (CO)","City of Boulder (CO)","City of Fort Collins (CO)","City of Greeley (CO)","City of Loveland (CO)","City of Westminster (CO)","Gilpin County (CO)","Gunnison County (CO)","Jefferson County (CO)","Larimer County (CO)","Mesa County (CO)","Pitkin County (CO)","Pubelo County (CO)","San Miguel County (CO)","City of Honolulu (HI)"]}
